#aV2013  2  5  0  0  0.00000000     288 DD+AD WGS84 FIT  NGA
## 1726 172800.00000000   300.00000000 56328 0.0000000000000
+   31     1  2  3  4  5  6  7  8  9 10 11 12 13 14 15 16 17
+         18 19 20 21 22 23 24 25 26 28 29 30 31 32  0  0  0
+          0  0  0  0  0  0  0  0  0  0  0  0  0  0  0  0  0
+          0  0  0  0  0  0  0  0  0  0  0  0  0  0  0  0  0
+          0  0  0  0  0  0  0  0  0  0  0  0  0  0  0  0  0
++         2  2  2  2  2  2  2  2  2  2  2  2  2  2  2  2  2
++         2  2  2  2  2  2  2  2  2  2  2  2  2  2  2  0  0
++         0  0  0  0  0  0  0  0  0  0  0  0  0  0  0  0  0
++         0  0  0  0  0  0  0  0  0  0  0  0  0  0  0  0  0
++         0  0  0  0  0  0  0  0  0  0  0  0  0  0  0  0  0
%c cc cc ccc ccc cccc cccc cccc cccc ccccc ccccc ccccc ccccc
%c cc cc ccc ccc cccc cccc cccc cccc ccccc ccccc ccccc ccccc
%f  0.0000000  0.000000000  0.00000000000  0.000000000000000
%f  0.0000000  0.000000000  0.00000000000  0.000000000000000
%i    0    0    0    0      0      0      0      0         0
%i    0    0    0    0      0      0      0      0         0
/*      NGA, ST. LOUIS,MO.                                  
/*   EPHEMERIS COMPUTED FROM  1 DAYS OF DATA
/*   EPOCHA SMOOTHER  
/* CCCCCCCCCCCCCCCCCCCCCCCCCCCCCCCCCCCCCCCCCCCCCCCCCCCCCCCCC
*  2013  2  5 19  5  0.00000000                                                 
P  1 -13742.665721  17894.837231  13936.357916     -1.557238                    
V  1   1485.879269 -17840.095604  24400.351440      0.025509                    
P  2  14696.773901   5802.833338 -21206.371207    417.325942                    
V  2  -5293.391333  26873.066748   3141.986957      0.015261                    
P  3 -23523.292899  -6902.242626   9998.549269    164.503994                    
V  3  -9335.124428 -10126.376683 -27344.158783      0.050947                    
P  4   8681.188129  18758.068981 -16800.360398    125.970312                    
V  4  -6542.655640  20077.021339  19646.218531      0.111200                    
P  5  25098.965194  -1611.688751  -8784.883999   -382.304909                    
V  5  -9661.308455   6123.355595 -28688.746360     -0.018746                    
P  6 -22891.217120 -12425.341285   6156.948850    361.890227                    
V  6  -4112.085544  -7115.676376 -29777.159705     -0.142525                    
P  7  -6063.455968  25697.307659   -187.062569    177.260463                    
V  7  -2453.683468   -863.604685 -32273.901585      0.043555                    
P  8    -54.024285  23743.555416  11361.702224      4.481123                    
V  8  -6185.757518  13160.559508 -28346.148950      0.001600                    
P  9  14791.913198  -1083.214724  21486.067153    218.670617                    
V  9  -5412.791854  28022.834229   4961.652494      0.026099                    
P 10  13520.399013  11246.067408 -20303.103136    -68.834563                    
V 10 -23722.136884   8236.543857 -10983.774300     -0.013138                    
P 11 -14082.993101  12075.574738  18491.469950   -350.622376                    
V 11  -4338.255579 -24499.803397  12692.516040     -0.037362                    
P 12  22676.019154 -11619.486651  -7135.107298    116.265507                    
V 12   9307.325402   -470.898442  30626.089942      0.020616                    
P 13  -3457.121926  16551.730801 -20589.990138    147.022700                    
V 13 -18009.553489 -18495.166843 -12033.729422     -0.028826                    
P 14 -13328.191949 -21657.724073   8104.614613    220.251236                    
V 14   8395.642736   5750.747026  29754.655351      0.003067                    
P 15  18366.585935  -2571.920000  19080.653065   -107.415664                    
V 15  17531.485955  16823.869275 -14337.782551     -0.012274                    
P 16 -24819.209226    -46.266457  -9912.807188   -252.236681                    
V 16  11571.349768  -4855.742203 -28646.194847     -0.001808                    
P 17  15189.191611  21026.729126   6493.957344     52.631458                    
V 17  -7307.747308  -3842.947743  30262.965930     -0.037828                    
P 18   3734.992188 -17146.607475  20237.625292    237.926571                    
V 18  24281.630855  -6379.664819 -10433.771257      0.018743                    
P 19 -19334.810227  -2224.161065  18177.093732   -346.106734                    
V 19 -14726.321980 -17829.703340 -17366.320538     -0.032545                    
P 20 -21031.869279  14272.069015  -7754.563640     82.905428                    
V 20 -10331.560218     93.159641  28929.420684      0.015637                    
P 21   2318.697737 -25902.081959   4204.977079   -278.893059                    
V 21   4994.972477  -3842.747734 -30830.946226     -0.022621                    
P 22  -9561.858286 -13521.474290  20966.588539    157.663774                    
V 22  24880.337910  -8635.017258   5695.018705      0.009337                    
P 23 -12170.583626   9461.840656 -21593.020357    116.794711                    
V 23 -20176.037396 -18751.292503   2770.332699     -0.037109                    
P 24  14760.533124 -14687.055660  16469.721573     -0.549929                    
V 24  -2312.257642  20889.563072  20726.991692     -0.006277                    
P 25  13420.964656 -16173.776415 -16222.725760     68.036642                    
V 25  20026.394542  -4888.294968  21571.303167      0.028593                    
P 26  20960.871118  11159.755461  11616.645508   -112.158305                    
V 26   9290.241897  12644.914709 -27083.746619      0.139578                    
P 28   4871.647197  14240.950868  22472.918637    229.998462                    
V 28 -26149.162227   6964.908040   1101.706136      0.033833                    
P 29   3025.485374 -16778.873264 -20321.342755    405.003657                    
V 29  19096.883035  17524.381029 -11555.484782      0.036514                    
P 30 -18246.327734  -6131.813622 -18641.619474   -233.253413                    
V 30  20439.411441 -10544.847005 -16877.875251      0.089936                    
P 31  -9766.937338 -15007.904353 -19334.612889    301.075472                    
V 31   6907.172675 -24046.277497  15301.219291      0.017793                    
P 32 -25362.222880   6748.159940  -1166.020296   -532.839520                    
V 32  -2460.193375  -3155.173491  31793.447236     -0.034709                    
EOF
